ATLAS CENTAUR R/B       
1 06155U 72065B   25346.99762733  .00002311  00000+0  31973-3 0  9995
2 06155  35.0013  93.6861 0033912 359.7472   0.3207 14.77411114828437
SL-8 R/B                
1 08459U 75112B   25346.96969042  .00000439  00000+0  15304-3 0  9998
2 08459  74.0591 178.4353 0016603 289.7533  70.1830 14.38145321619409
SL-3 R/B                
1 10114U 77057B   25347.01546637  .00016527  00000+0  37706-3 0  9992
2 10114  97.5685 150.3540 0006513 231.5491 128.5172 15.42953869654954
SEASAT 1                
1 10967U 78064A   25346.82064302  .00000705  00000+0  23585-3 0  9990
2 10967 108.0116 303.2036 0001626 250.4919 109.6051 14.46062090493958
SL-14 R/B               
1 11267U 79011B   25346.98926744  .00000917  00000+0  88372-4 0  9992
2 11267  82.5234 178.8077 0015885 352.6430   7.4554 14.91770034515856
SL-8 R/B                
1 11574U 79089B   25346.90564883  .00000448  00000+0  14360-3 0  9996
2 11574  74.0692 251.6721 0014475  85.9533 274.3278 14.42284030423590
SL-14 R/B               
1 11672U 80005B   25346.87829304  .00000846  00000+0  83281-4 0  9994
2 11672  82.5149  29.5680 0017363  93.0398 267.2808 14.90792093463550
SL-8 R/B                
1 12139U 81003B   25346.53847679  .00020820  00000+0  55166-3 0  9994
2 12139  82.9303  10.3887 0279665 120.9181 241.9866 15.07028350301536
SL-3 R/B                
1 12465U 81046B   25346.95436816  .00015060  00000+0  37903-3 0  9995
2 12465  81.2333  33.6812 0018817 323.6428  36.3534 15.39611978425078
SL-3 R/B                
1 12904U 81103B   25346.98914217  .00009263  00000+0  42521-3 0  9996
2 12904  81.1592 315.0618 0011717 212.0547 147.9973 15.20237569960056
SL-3 R/B                
1 13068U 82013B   25347.03812137  .00007268  00000+0  32324-3 0  9997
2 13068  81.1749 262.2603 0024063 109.8714 250.5114 15.21090867391174
SL-3 R/B                
1 13154U 82039B   25346.97073255  .00004606  00000+0  28295-3 0  9998
2 13154  81.1720 315.8316 0029664 251.5666 108.2334 15.09528482368552
