CCSDS_OMM_VERS = 2.0
CREATION_DATE  = 
ORIGINATOR     = 

OBJECT_NAME    = ATLAS CENTAUR R/B
OBJECT_ID      = 1972-065B
CENTER_NAME    = EARTH
REF_FRAME      = TEME
TIME_SYSTEM    = UTC
MEAN_ELEMENT_THEORY = SGP/SGP4

EPOCH          = 2025-12-12T23:56:35.001312
MEAN_MOTION    = 14.77411114
ECCENTRICITY   = .00339126
INCLINATION    = 35.0013
RA_OF_ASC_NODE = 93.6861
ARG_OF_PERICENTER = 359.7472
MEAN_ANOMALY   = 0.3207

EPHEMERIS_TYPE = 0
CLASSIFICATION_TYPE = U
NORAD_CAT_ID   = 6155
ELEMENT_SET_NO = 999
REV_AT_EPOCH   = 82843
BSTAR          = .31973199E-3
MEAN_MOTION_DOT = .2311E-4
MEAN_MOTION_DDOT = 0

CCSDS_OMM_VERS = 2.0
CREATION_DATE  = 
ORIGINATOR     = 

OBJECT_NAME    = SL-8 R/B
OBJECT_ID      = 1975-112B
CENTER_NAME    = EARTH
REF_FRAME      = TEME
TIME_SYSTEM    = UTC
MEAN_ELEMENT_THEORY = SGP/SGP4

EPOCH          = 2025-12-12T23:16:21.252288
MEAN_MOTION    = 14.38145321
ECCENTRICITY   = .00166037
INCLINATION    = 74.0591
RA_OF_ASC_NODE = 178.4353
ARG_OF_PERICENTER = 289.7533
MEAN_ANOMALY   = 70.1830

EPHEMERIS_TYPE = 0
CLASSIFICATION_TYPE = U
NORAD_CAT_ID   = 8459
ELEMENT_SET_NO = 999
REV_AT_EPOCH   = 61940
BSTAR          = .15304108E-3
MEAN_MOTION_DOT = .439E-5
MEAN_MOTION_DDOT = 0

CCSDS_OMM_VERS = 2.0
CREATION_DATE  = 
ORIGINATOR     = 

OBJECT_NAME    = SL-3 R/B
OBJECT_ID      = 1977-057B
CENTER_NAME    = EARTH
REF_FRAME      = TEME
TIME_SYSTEM    = UTC
MEAN_ELEMENT_THEORY = SGP/SGP4

EPOCH          = 2025-12-13T00:22:16.294368
MEAN_MOTION    = 15.42953869
ECCENTRICITY   = .00065133
INCLINATION    = 97.5685
RA_OF_ASC_NODE = 150.3540
ARG_OF_PERICENTER = 231.5491
MEAN_ANOMALY   = 128.5172

EPHEMERIS_TYPE = 0
CLASSIFICATION_TYPE = U
NORAD_CAT_ID   = 10114
ELEMENT_SET_NO = 999
REV_AT_EPOCH   = 65495
BSTAR          = .37706268E-3
MEAN_MOTION_DOT = .16527E-3
MEAN_MOTION_DDOT = 0

CCSDS_OMM_VERS = 2.0
CREATION_DATE  = 
ORIGINATOR     = 

OBJECT_NAME    = SEASAT 1
OBJECT_ID      = 1978-064A
CENTER_NAME    = EARTH
REF_FRAME      = TEME
TIME_SYSTEM    = UTC
MEAN_ELEMENT_THEORY = SGP/SGP4

EPOCH          = 2025-12-12T19:41:43.556928
MEAN_MOTION    = 14.46062090
ECCENTRICITY   = .00016261
INCLINATION    = 108.0116
RA_OF_ASC_NODE = 303.2036
ARG_OF_PERICENTER = 250.4919
MEAN_ANOMALY   = 109.6051

EPHEMERIS_TYPE = 0
CLASSIFICATION_TYPE = U
NORAD_CAT_ID   = 10967
ELEMENT_SET_NO = 999
REV_AT_EPOCH   = 49395
BSTAR          = .23585411E-3
MEAN_MOTION_DOT = .705E-5
MEAN_MOTION_DDOT = 0

CCSDS_OMM_VERS = 2.0
CREATION_DATE  = 
ORIGINATOR     = 

OBJECT_NAME    = SL-14 R/B
OBJECT_ID      = 1979-011B
CENTER_NAME    = EARTH
REF_FRAME      = TEME
TIME_SYSTEM    = UTC
MEAN_ELEMENT_THEORY = SGP/SGP4

EPOCH          = 2025-12-12T23:44:32.706816
MEAN_MOTION    = 14.91770034
ECCENTRICITY   = .00158858
INCLINATION    = 82.5234
RA_OF_ASC_NODE = 178.8077
ARG_OF_PERICENTER = 352.6430
MEAN_ANOMALY   = 7.4554

EPHEMERIS_TYPE = 0
CLASSIFICATION_TYPE = U
NORAD_CAT_ID   = 11267
ELEMENT_SET_NO = 999
REV_AT_EPOCH   = 51585
BSTAR          = .88372451E-4
MEAN_MOTION_DOT = .917E-5
MEAN_MOTION_DDOT = 0

CCSDS_OMM_VERS = 2.0
CREATION_DATE  = 
ORIGINATOR     = 

OBJECT_NAME    = SL-8 R/B
OBJECT_ID      = 1979-089B
CENTER_NAME    = EARTH
REF_FRAME      = TEME
TIME_SYSTEM    = UTC
MEAN_ELEMENT_THEORY = SGP/SGP4

EPOCH          = 2025-12-12T21:44:08.058912
MEAN_MOTION    = 14.42284030
ECCENTRICITY   = .00144753
INCLINATION    = 74.0692
RA_OF_ASC_NODE = 251.6721
ARG_OF_PERICENTER = 85.9533
MEAN_ANOMALY   = 274.3278

EPHEMERIS_TYPE = 0
CLASSIFICATION_TYPE = U
NORAD_CAT_ID   = 11574
ELEMENT_SET_NO = 999
REV_AT_EPOCH   = 42359
BSTAR          = .14359803E-3
MEAN_MOTION_DOT = .448E-5
MEAN_MOTION_DDOT = 0

CCSDS_OMM_VERS = 2.0
CREATION_DATE  = 
ORIGINATOR     = 

OBJECT_NAME    = SL-14 R/B
OBJECT_ID      = 1980-005B
CENTER_NAME    = EARTH
REF_FRAME      = TEME
TIME_SYSTEM    = UTC
MEAN_ELEMENT_THEORY = SGP/SGP4

EPOCH          = 2025-12-12T21:04:44.518656
MEAN_MOTION    = 14.90792093
ECCENTRICITY   = .00173632
INCLINATION    = 82.5149
RA_OF_ASC_NODE = 29.5680
ARG_OF_PERICENTER = 93.0398
MEAN_ANOMALY   = 267.2808

EPHEMERIS_TYPE = 0
CLASSIFICATION_TYPE = U
NORAD_CAT_ID   = 11672
ELEMENT_SET_NO = 999
REV_AT_EPOCH   = 46355
BSTAR          = .83281154E-4
MEAN_MOTION_DOT = .846E-5
MEAN_MOTION_DDOT = 0

CCSDS_OMM_VERS = 2.0
CREATION_DATE  = 
ORIGINATOR     = 

OBJECT_NAME    = SL-8 R/B
OBJECT_ID      = 1981-003B
CENTER_NAME    = EARTH
REF_FRAME      = TEME
TIME_SYSTEM    = UTC
MEAN_ELEMENT_THEORY = SGP/SGP4

EPOCH          = 2025-12-12T12:55:24.394656
MEAN_MOTION    = 15.07028350
ECCENTRICITY   = .02796652
INCLINATION    = 82.9303
RA_OF_ASC_NODE = 10.3887
ARG_OF_PERICENTER = 120.9181
MEAN_ANOMALY   = 241.9866

EPHEMERIS_TYPE = 0
CLASSIFICATION_TYPE = U
NORAD_CAT_ID   = 12139
ELEMENT_SET_NO = 999
REV_AT_EPOCH   = 30153
BSTAR          = .55166453E-3
MEAN_MOTION_DOT = .2082E-3
MEAN_MOTION_DDOT = 0

CCSDS_OMM_VERS = 2.0
CREATION_DATE  = 
ORIGINATOR     = 

OBJECT_NAME    = SL-3 R/B
OBJECT_ID      = 1981-046B
CENTER_NAME    = EARTH
REF_FRAME      = TEME
TIME_SYSTEM    = UTC
MEAN_ELEMENT_THEORY = SGP/SGP4

EPOCH          = 2025-12-12T22:54:17.409024
MEAN_MOTION    = 15.39611978
ECCENTRICITY   = .00188178
INCLINATION    = 81.2333
RA_OF_ASC_NODE = 33.6812
ARG_OF_PERICENTER = 323.6428
MEAN_ANOMALY   = 36.3534

EPHEMERIS_TYPE = 0
CLASSIFICATION_TYPE = U
NORAD_CAT_ID   = 12465
ELEMENT_SET_NO = 999
REV_AT_EPOCH   = 42507
BSTAR          = .37903233E-3
MEAN_MOTION_DOT = .1506E-3
MEAN_MOTION_DDOT = 0

CCSDS_OMM_VERS = 2.0
CREATION_DATE  = 
ORIGINATOR     = 

OBJECT_NAME    = SL-3 R/B
OBJECT_ID      = 1981-103B
CENTER_NAME    = EARTH
REF_FRAME      = TEME
TIME_SYSTEM    = UTC
MEAN_ELEMENT_THEORY = SGP/SGP4

EPOCH          = 2025-12-12T23:44:21.883488
MEAN_MOTION    = 15.20237569
ECCENTRICITY   = .00117176
INCLINATION    = 81.1592
RA_OF_ASC_NODE = 315.0618
ARG_OF_PERICENTER = 212.0547
MEAN_ANOMALY   = 147.9973

EPHEMERIS_TYPE = 0
CLASSIFICATION_TYPE = U
NORAD_CAT_ID   = 12904
ELEMENT_SET_NO = 999
REV_AT_EPOCH   = 96005
BSTAR          = .42521424E-3
MEAN_MOTION_DOT = .9263E-4
MEAN_MOTION_DDOT = 0

CCSDS_OMM_VERS = 2.0
CREATION_DATE  = 
ORIGINATOR     = 

OBJECT_NAME    = SL-3 R/B
OBJECT_ID      = 1982-013B
CENTER_NAME    = EARTH
REF_FRAME      = TEME
TIME_SYSTEM    = UTC
MEAN_ELEMENT_THEORY = SGP/SGP4

EPOCH          = 2025-12-13T00:54:53.686368
MEAN_MOTION    = 15.21090867
ECCENTRICITY   = .00240631
INCLINATION    = 81.1749
RA_OF_ASC_NODE = 262.2603
ARG_OF_PERICENTER = 109.8714
MEAN_ANOMALY   = 250.5114

EPHEMERIS_TYPE = 0
CLASSIFICATION_TYPE = U
NORAD_CAT_ID   = 13068
ELEMENT_SET_NO = 999
REV_AT_EPOCH   = 39117
BSTAR          = .32323975E-3
MEAN_MOTION_DOT = .7268E-4
MEAN_MOTION_DDOT = 0

CCSDS_OMM_VERS = 2.0
CREATION_DATE  = 
ORIGINATOR     = 

OBJECT_NAME    = SL-3 R/B
OBJECT_ID      = 1982-039B
CENTER_NAME    = EARTH
REF_FRAME      = TEME
TIME_SYSTEM    = UTC
MEAN_ELEMENT_THEORY = SGP/SGP4

EPOCH          = 2025-12-12T23:17:51.292320
MEAN_MOTION    = 15.09528482
ECCENTRICITY   = .00296645
INCLINATION    = 81.1720
RA_OF_ASC_NODE = 315.8316
ARG_OF_PERICENTER = 251.5666
MEAN_ANOMALY   = 108.2334

EPHEMERIS_TYPE = 0
CLASSIFICATION_TYPE = U
NORAD_CAT_ID   = 13154
ELEMENT_SET_NO = 999
REV_AT_EPOCH   = 36855
BSTAR          = .28294783E-3
MEAN_MOTION_DOT = .4606E-4
MEAN_MOTION_DDOT = 0

